{
  "type": "FeatureCollection",
  "features": [
    {
      "type": "Feature",
      "properties": {
        "norad_id": 66997,
        "name": "2025-292E",
        "group": "last-30-days",
        "lat": 65.69447233277289,
        "lon": 53.91160756077737,
        "alt_km": 555.3107947178769,
        "timestamp": "2025-12-24T18:55:54.778632+00:00",
        "meta_object_name": "2025-292E",
        "meta_object_id": "2025-292E",
        "meta_epoch": "2025-12-24T07:27:48.683232",
        "meta_mean_motion": 15.04761215,
        "meta_eccentricity": 0.00140804,
        "meta_inclination": 97.6515,
        "meta_ra_of_asc_node": 70.7558,
        "meta_arg_of_pericenter": 234.6788,
        "meta_mean_anomaly": 125.3123,
        "meta_ephemeris_type": 0,
        "meta_classification_type": "U",
        "meta_norad_cat_id": 66997,
        "meta_element_set_no": 999,
        "meta_rev_at_epoch": 212,
        "meta_bstar": 0.00031272154,
        "meta_mean_motion_dot": 4.356e-05,
        "meta_mean_motion_ddot": 0,
        "tle_line1": "1 66997U 25292E   25358.31098013  .00004356  00000+0  31272-3 0  9990",
        "tle_line2": "2 66997  97.6515  70.7558 0014080 234.6788 125.3123 15.04761215  2129"
      },
      "geometry": {
        "type": "Point",
        "coordinates": [
          53.91160756077737,
          65.69447233277289
        ]
      }
    },
    {
      "type": "Feature",
      "properties": {
        "norad_id": 66998,
        "name": "2025-292F",
        "group": "last-30-days",
        "lat": 73.56077880151177,
        "lon": 44.123571135780864,
        "alt_km": 554.4406292638141,
        "timestamp": "2025-12-24T18:55:54.778644+00:00",
        "meta_object_name": "2025-292F",
        "meta_object_id": "2025-292F",
        "meta_epoch": "2025-12-24T05:49:52.188096",
        "meta_mean_motion": 15.04940102,
        "meta_eccentricity": 0.00151994,
        "meta_inclination": 97.6534,
        "meta_ra_of_asc_node": 70.695,
        "meta_arg_of_pericenter": 235.832,
        "meta_mean_anomaly": 124.1465,
        "meta_ephemeris_type": 0,
        "meta_classification_type": "U",
        "meta_norad_cat_id": 66998,
        "meta_element_set_no": 999,
        "meta_rev_at_epoch": 212,
        "meta_bstar": 0.0004217925,
        "meta_mean_motion_dot": 5.929e-05,
        "meta_mean_motion_ddot": 0,
        "tle_line1": "1 66998U 25292F   25358.24296514  .00005929  00000+0  42179-3 0  9994",
        "tle_line2": "2 66998  97.6534  70.6950 0015199 235.8320 124.1465 15.04940102  2123"
      },
      "geometry": {
        "type": "Point",
        "coordinates": [
          44.123571135780864,
          73.56077880151177
        ]
      }
    },
    {
      "type": "Feature",
      "properties": {
        "norad_id": 66999,
        "name": "2025-292G",
        "group": "last-30-days",
        "lat": 76.42022214765859,
        "lon": 37.40710852039712,
        "alt_km": 553.6610323349651,
        "timestamp": "2025-12-24T18:55:54.778654+00:00",
        "meta_object_name": "2025-292G",
        "meta_object_id": "2025-292G",
        "meta_epoch": "2025-12-24T05:49:00.951168",
        "meta_mean_motion": 15.05004127,
        "meta_eccentricity": 0.00147116,
        "meta_inclination": 97.6543,
        "meta_ra_of_asc_node": 70.6973,
        "meta_arg_of_pericenter": 237.8036,
        "meta_mean_anomaly": 122.1764,
        "meta_ephemeris_type": 0,
        "meta_classification_type": "U",
        "meta_norad_cat_id": 66999,
        "meta_element_set_no": 999,
        "meta_rev_at_epoch": 212,
        "meta_bstar": 0.00042633254,
        "meta_mean_motion_dot": 6.003e-05,
        "meta_mean_motion_ddot": 0,
        "tle_line1": "1 66999U 25292G   25358.24237212  .00006003  00000+0  42633-3 0  9994",
        "tle_line2": "2 66999  97.6543  70.6973 0014711 237.8036 122.1764 15.05004127  2123"
      },
      "geometry": {
        "type": "Point",
        "coordinates": [
          37.40710852039712,
          76.42022214765859
        ]
      }
    },
    {
      "type": "Feature",
      "properties": {
        "norad_id": 67000,
        "name": "2025-292H",
        "group": "last-30-days",
        "lat": 76.89111651441821,
        "lon": 35.956774247094124,
        "alt_km": 553.4330821407902,
        "timestamp": "2025-12-24T18:55:54.778664+00:00",
        "meta_object_name": "2025-292H",
        "meta_object_id": "2025-292H",
        "meta_epoch": "2025-12-23T10:40:00.051456",
        "meta_mean_motion": 15.05018797,
        "meta_eccentricity": 0.00146077,
        "meta_inclination": 97.656,
        "meta_ra_of_asc_node": 69.9088,
        "meta_arg_of_pericenter": 240.3187,
        "meta_mean_anomaly": 119.6586,
        "meta_ephemeris_type": 0,
        "meta_classification_type": "U",
        "meta_norad_cat_id": 67000,
        "meta_element_set_no": 999,
        "meta_rev_at_epoch": 187,
        "meta_bstar": 0.00048749266,
        "meta_mean_motion_dot": 6.877e-05,
        "meta_mean_motion_ddot": 0,
        "tle_line1": "1 67000U 25292H   25357.44444504  .00006877  00000+0  48749-3 0  9996",
        "tle_line2": "2 67000  97.6560  69.9088 0014607 240.3187 119.6586 15.05018797  1876"
      },
      "geometry": {
        "type": "Point",
        "coordinates": [
          35.956774247094124,
          76.89111651441821
        ]
      }
    },
    {
      "type": "Feature",
      "properties": {
        "norad_id": 67001,
        "name": "2025-292J",
        "group": "last-30-days",
        "lat": 47.49174168788467,
        "lon": 62.788268389608426,
        "alt_km": 559.3900512303462,
        "timestamp": "2025-12-24T18:55:54.778675+00:00",
        "meta_object_name": "2025-292J",
        "meta_object_id": "2025-292J",
        "meta_epoch": "2025-12-24T04:21:06.296832",
        "meta_mean_motion": 15.0442037,
        "meta_eccentricity": 0.00148858,
        "meta_inclination": 97.6536,
        "meta_ra_of_asc_node": 70.623,
        "meta_arg_of_pericenter": 226.9377,
        "meta_mean_anomaly": 133.0603,
        "meta_ephemeris_type": 0,
        "meta_classification_type": "U",
        "meta_norad_cat_id": 67001,
        "meta_element_set_no": 999,
        "meta_rev_at_epoch": 211,
        "meta_bstar": 0.0004196383,
        "meta_mean_motion_dot": 5.816e-05,
        "meta_mean_motion_ddot": 0,
        "tle_line1": "1 67001U 25292J   25358.18132288  .00005816  00000+0  41964-3 0  9996",
        "tle_line2": "2 67001  97.6536  70.6230 0014885 226.9377 133.0603 15.04420370  2118"
      },
      "geometry": {
        "type": "Point",
        "coordinates": [
          62.788268389608426,
          47.49174168788467
        ]
      }
    },
    {
      "type": "Feature",
      "properties": {
        "norad_id": 67002,
        "name": "ZK-1A R/B",
        "group": "last-30-days",
        "lat": -59.372647792655364,
        "lon": -120.68401317190035,
        "alt_km": 375.47953468005835,
        "timestamp": "2025-12-24T18:55:54.778685+00:00",
        "meta_object_name": "ZK-1A R/B",
        "meta_object_id": "2025-292K",
        "meta_epoch": "2025-12-24T04:01:05.009376",
        "meta_mean_motion": 15.5822502,
        "meta_eccentricity": 0.02069353,
        "meta_inclination": 97.7202,
        "meta_ra_of_asc_node": 71.8883,
        "meta_arg_of_pericenter": 323.8033,
        "meta_mean_anomaly": 34.9362,
        "meta_ephemeris_type": 0,
        "meta_classification_type": "U",
        "meta_norad_cat_id": 67002,
        "meta_element_set_no": 999,
        "meta_rev_at_epoch": 217,
        "meta_bstar": 0.00072425032,
        "meta_mean_motion_dot": 0.00155387,
        "meta_mean_motion_ddot": 8.659054e-06,
        "tle_line1": "1 67002U 25292K   25358.16741909  .00155387  86591-5  72425-3 0  9991",
        "tle_line2": "2 67002  97.7202  71.8883 0206935 323.8033  34.9362 15.58225020  2173"
      },
      "geometry": {
        "type": "Point",
        "coordinates": [
          -120.68401317190035,
          -59.372647792655364
        ]
      }
    },
    {
      "type": "Feature",
      "properties": {
        "norad_id": 67003,
        "name": "STARLINK-35660",
        "group": "last-30-days",
        "lat": -19.958645050436335,
        "lon": 116.51241229871981,
        "alt_km": 336.3106866403723,
        "timestamp": "2025-12-24T18:55:54.778695+00:00",
        "meta_object_name": "STARLINK-35660",
        "meta_object_id": "2025-293A",
        "meta_epoch": "2025-12-24T06:00:02.000160",
        "meta_mean_motion": 15.81231962,
        "meta_eccentricity": 0.00037594,
        "meta_inclination": 69.9928,
        "meta_ra_of_asc_node": 290.4463,
        "meta_arg_of_pericenter": 276.768,
        "meta_mean_anomaly": 100.1032,
        "meta_ephemeris_type": 0,
        "meta_classification_type": "U",
        "meta_norad_cat_id": 67003,
        "meta_element_set_no": 999,
        "meta_rev_at_epoch": 202,
        "meta_bstar": -0.0091260016,
        "meta_mean_motion_dot": -0.01577306,
        "meta_mean_motion_ddot": 0,
        "tle_line1": "1 67003U 25293A   25358.25002315 -.01577306  00000+0 -91260-2 0  9998",
        "tle_line2": "2 67003  69.9928 290.4463 0003759 276.7680 100.1032 15.81231962  2028"
      },
      "geometry": {
        "type": "Point",
        "coordinates": [
          116.51241229871981,
          -19.958645050436335
        ]
      }
    }
  ]
}